GALAXY 11 (G-11)        
1 26038U 99071A   25027.32896597  .00000073  00000+0  00000+0 0  9998
2 26038   5.4535  76.6700 0006940 283.7597 109.6857  0.99028512 92002
INTELSAT 9 (IS-9)       
1 26451U 00043A   25027.12375045 -.00000003  00000+0  00000+0 0  9990
2 26451   9.2729  53.7514 0002733 260.4828 283.2044  1.00271592 39067
INTELSAT 1R (IS-1R)     
1 26608U 00072A   25027.29841043 -.00000081  00000+0  00000+0 0  9996
2 26608   6.8127  70.3080 0010020 246.7640 293.6336  0.98973713 36220
INTELSAT 10 (IS-10)     
1 26766U 01019A   25027.12375045  .00000002  00000+0  00000+0 0  9991
2 26766   7.8601  64.4243 0003848 243.0132 289.8459  1.00271821 40542
INTELSAT 901 (IS-901)   
1 26824U 01024A   25027.03374223 -.00000186  00000+0  00000+0 0  9993
2 26824   0.0202 104.6866 0002446 247.3457 119.1740  1.00272421 17917
INTELSAT 902 (IS-902)   
1 26900U 01039A   25027.45797043 -.00000272  00000+0  00000+0 0  9995
2 26900   4.8341  77.9646 0004663 232.4293 291.3153  1.00269878 85628
INTELSAT 904 (IS-904)   
1 27380U 02007A   25027.39055115 -.00000204  00000+0  00000+0 0  9999
2 27380   5.6469  75.2400 0003067 251.0128 271.7393  1.00271132 46699
DIRECTV 5 (TEMPO 1)     
1 27426U 02023A   25027.26715899 -.00000044  00000+0  00000+0 0  9998
2 27426   3.5783  81.6778 0003309 240.6910 150.4658  1.00271339 83054
INTELSAT 905 (IS-905)   
1 27438U 02027A   25027.39159372 -.00000175  00000+0  00000+0 0  9992
2 27438   5.4738  75.8764 0002611 242.8559 284.6418  1.00270599 46292
GALAXY 3C (G-3C)        
1 27445U 02030A   25027.44910861 -.00000140  00000+0  00000+0 0  9990
2 27445   2.4318  84.5759 0002718  54.8009  54.4185  1.00271427 41426
INTELSAT 906 (IS-906)   
1 27513U 02041A   25027.19481868  .00000025  00000+0  00000+0 0  9991
2 27513   4.5116  79.1775 0005481 205.4956 336.2864  1.00272008 81957
GALAXY 23 (G-23)        
1 27854U 03034A   25027.44389578  .00000025  00000+0  00000+0 0  9995
2 27854   1.8875  86.1142 0003068 235.4224 204.3154  1.00271621 78675
GALAXY 13 (HORIZONS-1)  
1 27954U 03044A   25027.43816166  .00000147  00000+0  00000+0 0  9999
2 27954   0.1087  96.5986 0002035 237.2356 160.8185  1.00271017 41504
INTELSAT 10-02          
1 28358U 04022A   25027.50765903  .00000003  00000+0  00000+0 0  9996
2 28358   0.0497 253.1127 0000665 123.6745 292.0145  1.00270962 75488
XM-3 (RHYTHM)           
1 28626U 05008A   25026.80802674 -.00000188  00000+0  00000+0 0  9993
2 28626   0.0210 100.7247 0004213 124.7177 106.6323  1.00266564 37549
DIRECTV 8               
1 28659U 05019A   25027.01558422  .00000017  00000+0  00000+0 0  9994
2 28659   0.0202  84.2125 0002903 235.7180  53.1557  1.00271411 71997
GALAXY 28 (G-28)        
1 28702U 05022A   25027.37874472 -.00000172  00000+0  00000+0 0  9995
2 28702   1.9922  85.2921 0006549 206.1514 242.7593  1.00270410 46911
GALAXY 14 (G-14)        
1 28790U 05030A   25027.43894359  .00000028  00000+0  00000+0 0  9993
2 28790   3.7139  81.2257 0003587 293.3254 124.7273  0.98913749 71225
SPACEWAY 2              
1 28903U 05046B   25027.45597218 -.00000160  00000+0  00000+0 0  9990
2 28903   4.1713  77.6130 0001724  49.9031 103.5824  0.99062344 46262
GALAXY 16 (G-16)        
1 29236U 06023A   25027.28960081 -.00000111  00000+0  00000+0 0  9995
2 29236   0.0559 239.4639 0002903  82.6070 169.9586  1.00270072 67901
DIRECTV 9S              
1 29494U 06043A   25027.44780542 -.00000099  00000+0  00000+0 0  9998
2 29494   1.1107  87.1883 0002860 227.1170 232.6565  1.00271592 46311
GALAXY 17 (G-17)        
1 31307U 07016B   25027.37952664 -.00000192  00000+0  00000+0 0  9997
2 31307   1.6858  86.4653 0005351 206.2147 245.8243  1.00270949 64732
DIRECTV 10              
1 31862U 07032A   25027.31229979 -.00000087  00000+0  00000+0 0  9994
2 31862   0.0086 310.2778 0000410 354.4989 191.6755  1.00269886 40526
INTELSAT 11 (IS-11)     
1 32253U 07044B   25027.45936052 -.00000256  00000+0  00000+0 0  9992
2 32253   2.2448  85.0094 0004014 237.0408 287.2766  1.00270733 63422
HORIZONS-2              
1 32388U 07063B   25027.45327889 -.00000239  00000+0  00000+0 0  9995
2 32388   1.2924  87.0289 0001971 240.6613 248.6419  1.00269939 62740
DIRECTV 11              
1 32729U 08013A   25026.66232810 -.00000107  00000+0  00000+0 0  9995
2 32729   0.0115 309.8920 0000725 278.8488  36.6705  1.00263588 40512
GALAXY 18 (G-18)        
1 32951U 08024A   25027.44346138  .00000040  00000+0  00000+0 0  9995
2 32951   0.0178  63.1328 0002898 254.2644 206.1865  1.00271577 40782
INTELSAT 25 (IS-25)     
1 33153U 08034A   25027.46161941 -.00000210  00000+0  00000+0 0  9990
2 33153   1.3992  86.6874 0002918 230.4907 304.4676  1.00273029 60623
GALAXY 19 (G-19)        
1 33376U 08045A   25027.20604778 -.00000123  00000+0  00000+0 0  9994
2 33376   0.0564 260.0509 0002526  52.7247 151.1080  1.00269884 59832
FM-5                    
1 35493U 09034A   25027.21924670 -.00000185  00000+0  00000+0 0  9990
2 35493   0.0125 325.2390 0002168 204.3825 309.8934  1.00270463 41575
INTELSAT 14 (IS-14)     
1 36097U 09064A   25027.45892612 -.00000259  00000+0  00000+0 0  9992
2 36097   0.0182  70.2178 0002293 246.7106 290.2617  1.00271186 55536
INTELSAT 15 (IS-15)     
1 36106U 09067A   25027.48481653 -.00000171  00000+0  00000+0 0  9991
2 36106   0.0280  78.0685 0002188 246.8711  61.7481  1.00269312 36156
DIRECTV 12              
1 36131U 09075A   25026.87596728 -.00000087  00000+0  00000+0 0  9996
2 36131   0.0054 306.2814 0000538  73.2566 319.4932  1.00271012 41475
INTELSAT 16 (IS-16)     
1 36397U 10006A   25027.16701691 -.00000229  00000+0  00000+0 0  9994
2 36397   0.0146  55.7767 0001839 257.2048 157.6271  1.00271272 54580
XM-5                    
1 37185U 10053A   25027.51645144 -.00000007  00000+0  00000+0 0  9995
2 37185   0.0221  70.8824 0001137  82.5442  44.3411  1.00263958 52410
INTELSAT 17 (IS-17)     
1 37238U 10065B   25027.48099377  .00000013  00000+0  00000+0 0  9990
2 37238   0.0322 107.2109 0002901 230.7537  28.1761  1.00271604 48166
INTELSAT 28 (IS-28)     
1 37392U 11016A   25027.36299097  .00000030  00000+0  00000+0 0  9995
2 37392   0.4940  89.6752 0003988 215.8651 317.5990  1.00142104 48218
INTELSAT 18 (IS-18)     
1 37834U 11056A   25027.29869788  .00000068  00000+0  00000+0 0  9993
2 37834   0.0289  79.7673 0001318 256.0716  78.5230  1.00271272 48734
INTELSAT 22 (IS-22)     
1 38098U 12011A   25027.41438146 -.00000044  00000+0  00000+0 0  9997
2 38098   0.0130  54.6044 0001920 262.0703  31.4905  1.00271150  2112
INTELSAT 19 (IS-19)     
1 38356U 12030A   25026.75674446 -.00000041  00000+0  00000+0 0  9993
2 38356   0.0204  70.0116 0003041 249.2923 245.4248  1.00269325 45362
INTELSAT 20 (IS-20)     
1 38740U 12043A   25027.41438146 -.00000010  00000+0  00000+0 0  9999
2 38740   0.0263  94.2920 0001796  89.8595 160.4308  1.00270620 45759
INTELSAT 21 (IS-21)     
1 38749U 12045A   25027.26823186 -.00000270  00000+0  00000+0 0  9993
2 38749   0.0107 354.2771 0001557 313.6466 217.4222  1.00270294 45450
INTELSAT 23 (IS-23)     
1 38867U 12057A   25027.35065656 -.00000270  00000+0  00000+0 0  9997
2 38867   0.0458 224.9705 0000484 200.8539 134.2868  1.00267668 44874
FM-6                    
1 39360U 13058A   25027.44485146 -.00000001  00000+0  00000+0 0  9990
2 39360   0.0034 332.7955 0000439 243.2267 314.8895  1.00268022 40997
INTELSAT 30 (IS-30)     
1 40271U 14062A   25023.44807477 -.00000124  00000+0  00000+0 0  9996
2 40271   0.0100  43.2886 0001545  83.3962  62.5665  1.00236074  1671
DIRECTV 14              
1 40333U 14078B   25027.31010111 -.00000110  00000+0  00000+0 0  9998
2 40333   0.0129   2.2232 0000308 148.4060 348.5956  1.00270451 36988
DIRECTV 15              
1 40663U 15026A   25027.28617542 -.00000087  00000+0  00000+0 0  9998
2 40663   0.0212  85.2727 0000586  69.8117 331.8718  1.00272113 35396
SKY MEXICO-1            
1 40664U 15026B   25027.28105052 -.00000219  00000+0  00000+0 0  9994
2 40664   0.0222  12.3286 0002230 314.5584 182.3128  1.00271097 35388
INTELSAT 34 (IS-34)     
1 40874U 15039A   25027.15743873 -.00000270  00000+0  00000+0 0  9993
2 40874   0.0292  76.9274 0000383  99.9025 311.0492  1.00269390 34558
INTELSAT 31 (IS-31)     
1 41581U 16035A   25023.44807477 -.00000129  00000+0  00000+0 0  9998
2 41581   0.0126 104.9209 0001970  63.8023  20.5272  1.00270002 31570
INTELSAT 36 (IS-36)     
1 41747U 16053A   25027.48151506 -.00000010  00000+0  00000+0 0  9994
2 41747   0.0097  29.0848 0001131 303.0403  36.7128  1.00271041 30872
INTELSAT 32E (IS-32E)   
1 41945U 17007B   25026.67327505 -.00000252  00000+0  00000+0 0  9996
2 41945   0.0154  72.7055 0000580  63.4272 189.2607  1.00271359 29145
INTELSAT 35E (IS-35E)   
1 42818U 17041A   25027.03235215 -.00000222  00000+0  00000+0 0  9998
2 42818   0.0144  83.0566 0002192 236.9282 143.7205  1.00271396 27749
INTELSAT 37E (IS-37E)   
1 42950U 17059A   25027.39272316 -.00000126  00000+0  00000+0 0  9999
2 42950   0.0141  77.2236 0002442 220.6952 312.3623  1.00271084 26992
AZERSPACE 2 (IS-38)     
1 43632U 18074A   25027.01160455  .00000152  00000+0  00000+0 0  9992
2 43632   0.0181  34.9196 0001540 296.8684 204.0221  1.00270911 23372
HORIZONS-3E             
1 43633U 18074B   25027.35850156 -.00000016  00000+0  00000+0 0  9994
2 43633   0.0147 274.3301 0001029  18.1950 132.3703  1.00272152 23250
AT&T T-16               
1 44333U 19034A   25027.44789228 -.00000100  00000+0  00000+0 0  9994
2 44333   0.0176  59.2228 0001338  82.7657  45.3462  1.00268546 20560
INTELSAT 39 (IS-39)     
1 44476U 19049B   25027.40862229  .00000048  00000+0  00000+0 0  9997
2 44476   0.0280  77.9058 0000939  52.9329 205.1490  1.00269632 20051
GALAXY 30 (G-30)        
1 46114U 20056C   25027.02480024  .00000052  00000+0  00000+0 0  9990
2 46114   0.0177  59.9405 0001888 260.1968  50.3404  1.00273259 16217
GALAXY 33 (G-33)        
1 54026U 22128A   25027.37538149  .00000094  00000+0  00000+0 0  9999
2 54026   0.0178  56.0855 0001785 260.6115 172.3206  1.00271972  8677
GALAXY 34 (G-34)        
1 54027U 22128B   25027.44224505  .00000074  00000+0  00000+0 0  9994
2 54027   0.0082  25.7122 0001901 277.6138 213.8069  1.00272318  8847
GALAXY 31 (G-31)        
1 54243U 22153A   25027.40452478  .00000028  00000+0  00000+0 0  9999
2 54243   0.0160  94.1995 0001237 227.1972 190.1449  1.00271823  2067
GALAXY 32 (G-32)        
1 54244U 22153B   25027.16406297 -.00000158  00000+0  00000+0 0  9996
2 54244   0.0177  34.2688 0002566 306.3633 114.1036  1.00270978  8075
GALAXY 35 (G-35)        
1 54741U 22170A   25027.16362858 -.00000147  00000+0  00000+0 0  9999
2 54741   0.0174  86.5922 0001804 226.7997 139.0822  1.00271248  7829
GALAXY 36 (G-36)        
1 54742U 22170B   25027.45023806 -.00000170  00000+0  00000+0 0  9995
2 54742   0.0045  92.9053 0001806 318.9530 148.1852  1.00271065  7700
GALAXY 37 (G-37)        
1 57493U 23112A   25027.37127299  .00000063  00000+0  00000+0 0  9990
2 57493   0.0072  38.5136 0001775 274.0083 181.0133  1.00271113  5478
